     3.00           N                   E                   RINEX VERSION / TYPE
BRD_USR             ESA                 20190111 181702  UTCPGM / RUN BY / DATE
 GAL   4.5750E+01  3.1250E-02 -1.9836E-03  0.0000E+00       IONOSPHERIC CORR
GAUT  2.7939677238E-09-1.776356839E-15 432000 2035 GSTB   0 TIME SYSTEM CORR
GPGA  2.1827872843E-09 1.199040867E-14 518400 2035 GSTB   0 TIME SYSTEM CORR
                                                            END OF HEADER
E19 2019 01 11 16 40 00-9.200128261000E-06 3.410605131648E-13 0.000000000000E+00
     5.200000000000E+01 3.875000000000E+00 3.119058492734E-09 1.319432544667E+00
     5.215406417847E-08 1.316858688369E-04 1.206248998642E-05 5.440624702454E+03
     4.920000000000E+05-1.303851604462E-08 1.238574926566E+00-1.862645149231E-09
     9.582059730106E-01 8.078125000000E+01 2.387176033224E+00-5.487728585923E-09
     3.017982853957E-10 2.580000000000E+02 2.035000000000E+03 0.000000000000E+00
     3.120000000000E+00 0.000000000000E+00-8.614733815193E-09 0.000000000000E+00
     4.927000000000E+05 0.000000000000E+00 0.000000000000E+00 0.000000000000E+00
E21 2019 01 11 16 40 00-5.139254499227E-04-1.804778548831E-12 0.000000000000E+00
     5.200000000000E+01-3.000000000000E+00 2.652967649609E-09 2.196267966851E+00
    -2.030283212662E-07 4.798138979822E-05 8.415430784225E-06 5.440627237320E+03
     4.920000000000E+05-2.235174179077E-08-2.951386714749E+00-3.725290298462E-08
     9.897327938864E-01 1.754687500000E+02 1.428581314603E-01-5.298434986799E-09
    -5.064496670900E-10 2.580000000000E+02 2.035000000000E+03 0.000000000000E+00
     3.120000000000E+00 0.000000000000E+00-2.561137080193E-09 0.000000000000E+00
     4.927000000000E+05 0.000000000000E+00 0.000000000000E+00 0.000000000000E+00
E25 2019 01 11 16 40 00 1.926890050527E-03-1.139710548159E-11 0.000000000000E+00
     5.200000000000E+01-6.812500000000E+00 2.809402737186E-09 5.224990527771E-01
    -3.948807716370E-07 1.959541114047E-04 7.741153240204E-06 5.440621454239E+03
     4.920000000000E+05 3.166496753693E-08-2.951395318170E+00 7.823109626770E-08
     9.897381554812E-01 1.895625000000E+02-1.323386417248E+00-5.468799226010E-09
    -5.500229106620E-10 2.580000000000E+02 2.035000000000E+03 0.000000000000E+00
     3.120000000000E+00 0.000000000000E+00-1.164153218269E-09 0.000000000000E+00
     4.927000000000E+05 0.000000000000E+00 0.000000000000E+00 0.000000000000E+00
E26 2019 01 11 16 40 00 5.031391803641E-03-4.328626346251E-11 0.000000000000E+00
     5.200000000000E+01 1.481250000000E+01 2.998696336310E-09 2.247801914315E+00
     7.655471563339E-07 3.203683299944E-04 2.162531018257E-06 5.440605249405E+03
     4.920000000000E+05 5.774199962616E-08-8.598424408033E-01 2.235174179077E-08
     9.782697437872E-01 3.025312500000E+02-2.012771802722E+00-5.807027600294E-09
     2.250093725435E-10 2.580000000000E+02 2.035000000000E+03 0.000000000000E+00
     3.120000000000E+00 0.000000000000E+00 1.396983861923E-09 0.000000000000E+00
     4.927000000000E+05 0.000000000000E+00 0.000000000000E+00 0.000000000000E+00
E30 2019 01 11 16 40 00 5.196703423280E-03-3.043965079996E-11 0.000000000000E+00
     5.200000000000E+01-5.218750000000E+00 2.821546100149E-09-2.946969076657E+00
    -2.197921276093E-07 3.112853737548E-04 8.005648851395E-06 5.440616960526E+03
     4.920000000000E+05 1.303851604462E-08-2.945371951936E+00-5.215406417847E-08
     9.877207943757E-01 1.806250000000E+02 5.555030683497E-01-5.463084702263E-09
    -4.835915721015E-10 2.580000000000E+02 2.035000000000E+03 0.000000000000E+00
     3.120000000000E+00 0.000000000000E+00-3.026798367500E-09 0.000000000000E+00
     4.927000000000E+05 0.000000000000E+00 0.000000000000E+00 0.000000000000E+00
E33 2019 01 11 16 40 00 8.479031384923E-04 9.947598300641E-14 0.000000000000E+00
     5.200000000000E+01 2.234375000000E+01 2.967980771169E-09 8.800517982613E-01
     1.121312379837E-06 3.684922121465E-04 2.317130565643E-06 5.440594884872E+03
     4.920000000000E+05 2.607703208923E-08-8.687912087097E-01-3.166496753693E-08
     9.851487122896E-01 3.006562500000E+02-1.436592691418E+00-5.825956960207E-09
     2.385813664430E-10 2.580000000000E+02 2.035000000000E+03 0.000000000000E+00
     3.120000000000E+00 5.600000000000E+01-8.381903171539E-09 0.000000000000E+00
     4.927000000000E+05 0.000000000000E+00 0.000000000000E+00 0.000000000000E+00
E36 2019 01 11 16 40 00 7.608612067997E-04-4.447997525858E-12 0.000000000000E+00
     5.200000000000E+01 2.165625000000E+01 2.919407319319E-09-1.362747985135E+00
     1.076608896255E-06 3.334563225508E-04 3.146007657051E-06 5.440592962265E+03
     4.920000000000E+05-2.048909664154E-08-8.687645953040E-01 0.000000000000E+00
     9.851572586570E-01 2.845937500000E+02-1.548312128798E+00-5.742739208139E-09
     2.492960984689E-10 2.580000000000E+02 2.035000000000E+03 0.000000000000E+00
     3.120000000000E+00 5.600000000000E+01 1.164153218269E-09 0.000000000000E+00
     4.927000000000E+05 0.000000000000E+00 0.000000000000E+00 0.000000000000E+00
E02 2019 01 11 16 40 00 4.290725337341E-05 1.577404873387E-12 0.000000000000E+00
     5.200000000000E+01-7.343750000000E+00 2.783330222590E-09-1.424633533614E+00
    -3.166496753693E-07 2.673374256119E-04 7.636845111847E-06 5.440614875793E+03
     4.920000000000E+05 3.725290298462E-09-2.948811851656E+00-2.235174179077E-08
     9.901776146093E-01 1.917812500000E+02-1.809933497509E-01-5.409868199868E-09
    -4.707338936704E-10 5.210000000000E+02 2.035000000000E+03 0.000000000000E+00
     3.120000000000E+00 0.000000000000E+00-6.053596735001E-09-7.450580596924E-09
     4.927150000000E+05 0.000000000000E+00 0.000000000000E+00 0.000000000000E+00
E07 2019 01 11 16 40 00-1.106751151383E-04-7.062794793455E-12 0.000000000000E+00
     5.200000000000E+01 1.906250000000E+00 3.312995142403E-09-1.066670125081E+00
     7.078051567078E-08 1.348959049210E-04 1.088157296181E-05 5.440619787216E+03
     4.920000000000E+05-1.862645149231E-09 1.241838414457E+00-5.587935447693E-09
     9.524769707633E-01 1.045625000000E+02-1.845244843569E-02-5.552016978078E-09
     3.060841782060E-10 5.210000000000E+02 2.035000000000E+03 0.000000000000E+00
     3.120000000000E+00 0.000000000000E+00 0.000000000000E+00-2.328306436539E-10
     4.927150000000E+05 0.000000000000E+00 0.000000000000E+00 0.000000000000E+00
E19 2019 01 11 16 40 00-9.200710337609E-06 3.268496584496E-13 0.000000000000E+00
     5.200000000000E+01 3.875000000000E+00 3.119058492734E-09 1.319432544667E+00
     5.215406417847E-08 1.316858688369E-04 1.206248998642E-05 5.440624702454E+03
     4.920000000000E+05-1.303851604462E-08 1.238574926566E+00-1.862645149231E-09
     9.582059730106E-01 8.078125000000E+01 2.387176033224E+00-5.487728585923E-09
     3.017982853957E-10 5.210000000000E+02 2.035000000000E+03 0.000000000000E+00
     3.120000000000E+00 0.000000000000E+00-8.614733815193E-09-8.847564458847E-09
     4.928350000000E+05 0.000000000000E+00 0.000000000000E+00 0.000000000000E+00
E15 2019 01 11 15 50 00 9.232476586476E-04-9.947598300641E-13 0.000000000000E+00
     4.700000000000E+01 1.387500000000E+01 2.920121634787E-09 3.038679772387E+00
     6.034970283508E-07 3.886839840561E-04 2.346932888031E-06 5.440599088669E+03
     4.890000000000E+05 2.421438694000E-08-8.687489728018E-01 1.676380634308E-08
     9.851100107918E-01 3.007812500000E+02-1.611336079164E+00-5.769883195938E-09
     1.789360248322E-10 5.210000000000E+02 2.035000000000E+03 0.000000000000E+00
     3.120000000000E+00 4.550000000000E+02 1.396983861923E-09 1.396983861923E-09
     4.928950000000E+05 0.000000000000E+00 0.000000000000E+00 0.000000000000E+00
E27 2019 01 11 16 40 00 5.517873796634E-04-7.645439836779E-12 0.000000000000E+00
     5.200000000000E+01-1.843750000000E+00 2.733328139803E-09-2.314922480030E+00
    -2.216547727585E-07 1.923114759848E-04 7.968395948410E-06 5.440628555298E+03
     4.920000000000E+05-5.774199962616E-08-2.951369696623E+00-7.450580596924E-09
     9.897047804681E-01 1.810937500000E+02-8.422735495370E-01-5.400582098779E-09
    -5.393081786361E-10 5.210000000000E+02 2.035000000000E+03 0.000000000000E+00
     3.120000000000E+00 0.000000000000E+00-3.026798367500E-09-3.492459654808E-09
     4.928950000000E+05 0.000000000000E+00 0.000000000000E+00 0.000000000000E+00
E27 2019 01 11 16 40 00 5.517876124941E-04-7.645439836779E-12 0.000000000000E+00
     5.200000000000E+01-1.843750000000E+00 2.733328139803E-09-2.314922480030E+00
    -2.216547727585E-07 1.923114759848E-04 7.968395948410E-06 5.440628555298E+03
     4.920000000000E+05-5.774199962616E-08-2.951369696623E+00-7.450580596924E-09
     9.897047804681E-01 1.810937500000E+02-8.422735495370E-01-5.400582098779E-09
    -5.393081786361E-10 2.580000000000E+02 2.035000000000E+03 0.000000000000E+00
     3.120000000000E+00 0.000000000000E+00-3.026798367500E-09 0.000000000000E+00
     4.929000000000E+05 0.000000000000E+00 0.000000000000E+00 0.000000000000E+00
E12 2019 01 11 16 40 00 5.919916206039E-03 8.435563358944E-11 0.000000000000E+00
     5.200000000000E+01 2.756250000000E+01 3.046198314958E-09-4.647918836019E-01
     1.262873411179E-06 3.955102292821E-04 2.611428499222E-06 5.440600542068E+03
     4.920000000000E+05 1.862645149231E-08-8.634806975856E-01-6.705522537231E-08
     9.819252586141E-01 2.938437500000E+02-8.626597211257E-01-5.825599802472E-09
     2.175090601254E-10 2.580000000000E+02 2.035000000000E+03 0.000000000000E+00
     3.120000000000E+00 0.000000000000E+00-1.559965312481E-08 0.000000000000E+00
     4.929500000000E+05 0.000000000000E+00 0.000000000000E+00 0.000000000000E+00
